{
  "type": "FeatureCollection",
  "features": [
    {
      "type": "Feature",
      "properties": {
        "norad_id": 66529,
        "name": "STARLINK-35933",
        "group": "last-30-days",
        "lat": -40.65166235454974,
        "lon": -35.683829290826985,
        "alt_km": 446.4731853987387,
        "timestamp": "2025-12-16T15:45:49.731409+00:00",
        "meta_object_name": "STARLINK-35933",
        "meta_object_id": "2025-265P",
        "meta_epoch": "2025-12-15T22:00:01.999584",
        "meta_mean_motion": 15.40695505,
        "meta_eccentricity": 0.00012222,
        "meta_inclination": 43.0008,
        "meta_ra_of_asc_node": 35.7194,
        "meta_arg_of_pericenter": 264.2359,
        "meta_mean_anomaly": 232.8542,
        "meta_ephemeris_type": 0,
        "meta_classification_type": "U",
        "meta_norad_cat_id": 66529,
        "meta_element_set_no": 999,
        "meta_rev_at_epoch": 550,
        "meta_bstar": 0.00039042237,
        "meta_mean_motion_dot": 0.00016037,
        "meta_mean_motion_ddot": 0,
        "tle_line1": "1 66529U 25265P   25349.91668981  .00016037  00000+0  39042-3 0  9996",
        "tle_line2": "2 66529  43.0008  35.7194 0001222 264.2359 232.8542 15.40695505  5508"
      },
      "geometry": {
        "type": "Point",
        "coordinates": [
          -35.683829290826985,
          -40.65166235454974
        ]
      }
    },
    {
      "type": "Feature",
      "properties": {
        "norad_id": 66530,
        "name": "STARLINK-35961",
        "group": "last-30-days",
        "lat": -30.44678057444444,
        "lon": -7.713312994242843,
        "alt_km": 446.01474079912714,
        "timestamp": "2025-12-16T15:45:49.731420+00:00",
        "meta_object_name": "STARLINK-35961",
        "meta_object_id": "2025-265Q",
        "meta_epoch": "2025-12-15T22:00:01.999584",
        "meta_mean_motion": 15.40694432,
        "meta_eccentricity": 0.00013094,
        "meta_inclination": 43.001,
        "meta_ra_of_asc_node": 35.6588,
        "meta_arg_of_pericenter": 272.444,
        "meta_mean_anomaly": 249.5328,
        "meta_ephemeris_type": 0,
        "meta_classification_type": "U",
        "meta_norad_cat_id": 66530,
        "meta_element_set_no": 999,
        "meta_rev_at_epoch": 550,
        "meta_bstar": 0.00026353359,
        "meta_mean_motion_dot": 0.00010718,
        "meta_mean_motion_ddot": 0,
        "tle_line1": "1 66530U 25265Q   25349.91668981  .00010718  00000+0  26353-3 0  9999",
        "tle_line2": "2 66530  43.0010  35.6588 0001309 272.4440 249.5328 15.40694432  5502"
      },
      "geometry": {
        "type": "Point",
        "coordinates": [
          -7.713312994242843,
          -30.44678057444444
        ]
      }
    },
    {
      "type": "Feature",
      "properties": {
        "norad_id": 66531,
        "name": "STARLINK-35960",
        "group": "last-30-days",
        "lat": -15.552169193071318,
        "lon": 13.955135882253298,
        "alt_km": 445.18462791228103,
        "timestamp": "2025-12-16T15:45:49.731431+00:00",
        "meta_object_name": "STARLINK-35960",
        "meta_object_id": "2025-265R",
        "meta_epoch": "2025-12-15T22:00:01.999584",
        "meta_mean_motion": 15.40689176,
        "meta_eccentricity": 0.00012609,
        "meta_inclination": 43.0009,
        "meta_ra_of_asc_node": 35.5976,
        "meta_arg_of_pericenter": 269.9869,
        "meta_mean_anomaly": 276.88,
        "meta_ephemeris_type": 0,
        "meta_classification_type": "U",
        "meta_norad_cat_id": 66531,
        "meta_element_set_no": 999,
        "meta_rev_at_epoch": 550,
        "meta_bstar": 0.00019145631,
        "meta_mean_motion_dot": 7.699e-05,
        "meta_mean_motion_ddot": 0,
        "tle_line1": "1 66531U 25265R   25349.91668981  .00007699  00000+0  19146-3 0  9996",
        "tle_line2": "2 66531  43.0009  35.5976 0001260 269.9869 276.8800 15.40689176  5500"
      },
      "geometry": {
        "type": "Point",
        "coordinates": [
          13.955135882253298,
          -15.552169193071318
        ]
      }
    },
    {
      "type": "Feature",
      "properties": {
        "norad_id": 66532,
        "name": "STARLINK-35914",
        "group": "last-30-days",
        "lat": 1.1794318312779628,
        "lon": 32.53704398171269,
        "alt_km": 443.4373716264754,
        "timestamp": "2025-12-16T15:45:49.731442+00:00",
        "meta_object_name": "STARLINK-35914",
        "meta_object_id": "2025-265S",
        "meta_epoch": "2025-12-15T22:00:01.999584",
        "meta_mean_motion": 15.40697686,
        "meta_eccentricity": 0.00015786,
        "meta_inclination": 43.0008,
        "meta_ra_of_asc_node": 35.5372,
        "meta_arg_of_pericenter": 277.4399,
        "meta_mean_anomaly": 294.2923,
        "meta_ephemeris_type": 0,
        "meta_classification_type": "U",
        "meta_norad_cat_id": 66532,
        "meta_element_set_no": 999,
        "meta_rev_at_epoch": 550,
        "meta_bstar": 0.00018986108,
        "meta_mean_motion_dot": 7.635e-05,
        "meta_mean_motion_ddot": 0,
        "tle_line1": "1 66532U 25265S   25349.91668981  .00007635  00000+0  18986-3 0  9998",
        "tle_line2": "2 66532  43.0008  35.5372 0001578 277.4399 294.2923 15.40697686  5509"
      },
      "geometry": {
        "type": "Point",
        "coordinates": [
          32.53704398171269,
          1.1794318312779628
        ]
      }
    },
    {
      "type": "Feature",
      "properties": {
        "norad_id": 66533,
        "name": "STARLINK-35707",
        "group": "last-30-days",
        "lat": 42.702368650618126,
        "lon": 129.02778515398862,
        "alt_km": 414.53087078870976,
        "timestamp": "2025-12-16T15:45:49.731452+00:00",
        "meta_object_name": "STARLINK-35707",
        "meta_object_id": "2025-265T",
        "meta_epoch": "2025-12-15T13:02:43.828512",
        "meta_mean_motion": 15.49030729,
        "meta_eccentricity": 0.00031573,
        "meta_inclination": 43.001,
        "meta_ra_of_asc_node": 37.5429,
        "meta_arg_of_pericenter": 276.559,
        "meta_mean_anomaly": 83.491,
        "meta_ephemeris_type": 0,
        "meta_classification_type": "U",
        "meta_norad_cat_id": 66533,
        "meta_element_set_no": 999,
        "meta_rev_at_epoch": 419,
        "meta_bstar": 0.00097734741,
        "meta_mean_motion_dot": 0.00054327,
        "meta_mean_motion_ddot": 0,
        "tle_line1": "1 66533U 25265T   25349.54356283  .00054327  00000+0  97735-3 0  9996",
        "tle_line2": "2 66533  43.0010  37.5429 0003157 276.5590  83.4910 15.49030729  4192"
      },
      "geometry": {
        "type": "Point",
        "coordinates": [
          129.02778515398862,
          42.702368650618126
        ]
      }
    },
    {
      "type": "Feature",
      "properties": {
        "norad_id": 66534,
        "name": "STARLINK-35976",
        "group": "last-30-days",
        "lat": 42.0931311079169,
        "lon": 135.2780797140727,
        "alt_km": 406.04847720018824,
        "timestamp": "2025-12-16T15:45:49.731463+00:00",
        "meta_object_name": "STARLINK-35976",
        "meta_object_id": "2025-265U",
        "meta_epoch": "2025-12-15T09:57:03.123072",
        "meta_mean_motion": 15.50050631,
        "meta_eccentricity": 0.00060772,
        "meta_inclination": 43.0051,
        "meta_ra_of_asc_node": 38.2938,
        "meta_arg_of_pericenter": 127.1063,
        "meta_mean_anomaly": 233.0353,
        "meta_ephemeris_type": 0,
        "meta_classification_type": "U",
        "meta_norad_cat_id": 66534,
        "meta_element_set_no": 999,
        "meta_rev_at_epoch": 417,
        "meta_bstar": 0.0011426931,
        "meta_mean_motion_dot": 0.00066046,
        "meta_mean_motion_ddot": 0,
        "tle_line1": "1 66534U 25265U   25349.41461948  .00066046  00000+0  11427-2 0  9992",
        "tle_line2": "2 66534  43.0051  38.2938 0006077 127.1063 233.0353 15.50050631  4179"
      },
      "geometry": {
        "type": "Point",
        "coordinates": [
          135.2780797140727,
          42.0931311079169
        ]
      }
    },
    {
      "type": "Feature",
      "properties": {
        "norad_id": 66535,
        "name": "STARLINK-35514",
        "group": "last-30-days",
        "lat": 41.16050929298659,
        "lon": 141.28366292422695,
        "alt_km": 411.36570144752386,
        "timestamp": "2025-12-16T15:45:49.731474+00:00",
        "meta_object_name": "STARLINK-35514",
        "meta_object_id": "2025-265V",
        "meta_epoch": "2025-12-15T13:01:57.099072",
        "meta_mean_motion": 15.50545822,
        "meta_eccentricity": 0.0005009,
        "meta_inclination": 43.0013,
        "meta_ra_of_asc_node": 37.5374,
        "meta_arg_of_pericenter": 275.3717,
        "meta_mean_anomaly": 84.6572,
        "meta_ephemeris_type": 0,
        "meta_classification_type": "U",
        "meta_norad_cat_id": 66535,
        "meta_element_set_no": 999,
        "meta_rev_at_epoch": 419,
        "meta_bstar": 0.0015333409,
        "meta_mean_motion_dot": 0.00090585,
        "meta_mean_motion_ddot": 0,
        "tle_line1": "1 66535U 25265V   25349.54302198  .00090585  00000+0  15333-2 0  9993",
        "tle_line2": "2 66535  43.0013  37.5374 0005009 275.3717  84.6572 15.50545822  4196"
      },
      "geometry": {
        "type": "Point",
        "coordinates": [
          141.28366292422695,
          41.16050929298659
        ]
      }
    }
  ]
}